DELTA 2 R/B(1)          
1 20453U 90008B   26167.61776220  .00073516  00000+0  54588-3 0  9998
2 20453  35.5992 239.4686 0065024 109.1082 251.6712 15.68742109941613
COSMOS 2058             
1 20465U 90010A   26167.67222265  .00003544  00000+0  20458-3 0  9998
2 20465  82.4681 309.8622 0009240   2.5991 357.5285 15.12011210957199
SL-14 R/B               
1 20466U 90010B   26167.76320762  .00000306  00000+0  34163-4 0  9992
2 20466  82.5016 174.3431 0019126 337.7433  22.2950 14.83645963943177
SL-14 R/B               
1 20511U 90018B   26167.87637920  .00000317  00000+0  36688-4 0  9996
2 20511  82.5209 130.3981 0017426 122.6675 237.6223 14.82215981937275
HST                     
1 20580U 90037B   26167.16527473  .00005381  00000+0  16841-3 0  9990
2 20580  28.4719  87.5586 0001852 131.7056 228.3698 15.30736864788415
SL-16 R/B               
1 20625U 90046B   26167.87747852  .00000124  00000+0  88441-4 0  9999
2 20625  70.9998  89.5984 0013366 162.2249 197.9344 14.15026551862426
COSMOS 2084             
1 20663U 90055A   26167.86230089  .00001734  00000+0  13175-3 0  9998
2 20663  62.7899 357.1999 0005580 278.3631  81.6837 15.06114812951255
SL-6 R/B(2)             
1 20666U 90055D   26167.65039418  .00001280  00000+0  10535-3 0  9994
2 20666  62.7824 277.2032 0040577   5.0638 355.0864 15.04001570953077
SL-8 R/B                
1 20775U 90078B   26167.72569869  .00021177  00000+0  59670-3 0  9996
2 20775  82.9010 162.0620 0351076  40.0237 322.6292 14.92300247824055
SL-8 R/B                
1 21088U 91006B   26167.77242199  .00000055  00000+0  39616-4 0  9996
2 21088  82.9424  96.3422 0023686 115.6625 303.7838 13.77505846777714
OKEAN-3                 
1 21397U 91039A   26167.73978736  .00002406  00000+0  16592-3 0  9993
2 21397  82.5157 240.8149 0014125 359.7673   0.3545 15.05321980879930
COSMOS 2151             
1 21422U 91042A   26167.85965903  .00001389  00000+0  10809-3 0  9995
2 21422  82.4960 347.9971 0013822  85.0205 275.2597 15.00437682878060
SL-14 R/B               
1 21423U 91042B   26167.68027272  .00000297  00000+0  34580-4 0  9995
2 21423  82.4926 127.3709 0015418 276.6953  83.2506 14.81902193867734
ERS-1                   
1 21574U 91050A   26167.81727444  .00000241  00000+0  91893-4 0  9993
2 21574  98.7797 188.5063 0030711 268.0822  91.6847 14.39517614829992
ARIANE 40 R/B           
1 21610U 91050F   26167.70231103  .00000229  00000+0  80778-4 0  9990
2 21610  98.1876 216.1380 0004236 122.6310 237.5290 14.42956828833272
INTERCOSMOS 25          
1 21819U 91086A   26167.69911808  .00000680  00000+0  13569-3 0  9999
2 21819  82.6052 250.1052 1484036 263.4479  79.6132 12.12194972508685
SL-8 R/B                
1 21876U 92008B   26167.85761082  .00000136  00000+0  12464-3 0  9991
2 21876  82.9262 194.0326 0033821 215.6293 317.5528 13.75976881723058
SL-8 R/B                
1 21938U 92020B   26167.76152667  .00000074  00000+0  60752-4 0  9992
2 21938  82.9305  80.1735 0029756  23.7521  29.5554 13.75548799714757
USA 81                  
1 21949U 92023A   26167.71600010  .00000150  00000+0  47988-4 0  9993
2 21949  85.0075  74.2794 0002750  84.8765 275.2741 14.32398074108960
COSMOS 2219             
1 22219U 92076A   26167.76619626  .00000262  00000+0  16203-3 0  9999
2 22219  71.0579 170.9519 0016583  44.8439 315.4020 14.14098738732387
SL-16 R/B               
1 22220U 92076B   26167.75285830  .00000185  00000+0  11617-3 0  9994
2 22220  71.0005 339.6961 0014657 299.2049 149.2301 14.16872049735869
COSMOS 2221             
1 22236U 92080A   26167.53724681  .00001173  00000+0  10073-3 0  9997
2 22236  82.5031 184.3874 0013216 214.5560 145.4804 14.96531580795578
SL-16 R/B               
1 22285U 92093B   26167.39440691 -.00000303  00000+0 -13061-3 0  9991
2 22285  71.0197 157.0557 0004002 189.9480 170.1564 14.15461601727123
COSMOS 2228             
1 22286U 92094A   26167.82042192  .00001747  00000+0  14702-3 0  9999
2 22286  82.5173 142.3941 0016929 333.6679  26.3681 14.97585555790899
SL-16 R/B               
1 22566U 93016B   26167.86914725  .00000273  00000+0  16435-3 0  9997
2 22566  71.0085   6.8755 0010219 183.9713 176.1330 14.15314041716201
COSMOS 2242             
1 22626U 93024A   26167.71285206  .00001362  00000+0  11617-3 0  9999
2 22626  82.5179 171.9967 0015391 337.9851  22.0708 14.96901993795200
SL-16 R/B               
1 22803U 93059B   26167.71352942 -.00000044  00000+0  19052-5 0  9996
2 22803  70.9887 162.3025 0015199  54.7425 305.5119 14.17248286693563
ARIANE 40 R/B           
1 22830U 93061H   26167.71659955  .00000155  00000+0  72656-4 0  9993
2 22830  98.4819 234.5834 0010476 357.5407   2.5724 14.32907808708281
COSMOS 2278             
1 23087U 94023A   26167.75185578  .00000101  00000+0  77360-4 0  9994
2 23087  71.0548 327.8355 0010619 243.7555 116.2476 14.14398046658813
SL-16 R/B               
1 23088U 94023B   26167.54174500  .00000280  00000+0  16940-3 0  9999
2 23088  70.9994 223.2870 0002792 187.1392 172.9692 14.15024921660070
SL-16 R/B               
1 23343U 94074B   26167.83018198  .00000330  00000+0  50697-4 0  9995
2 23343  97.6990 194.5660 0005123 255.0342 278.0092 14.79502052701900
SL-16 R/B               
1 23405U 94077B   26167.62608580  .00000065  00000+0  57637-4 0  9990
2 23405  70.9809 144.3427 0002899 328.4606  31.6343 14.15571992630239
ARIANE 40+ R/B          
1 23561U 95021B   26167.71681321  .00000214  00000+0  82156-4 0  9997
2 23561  98.4412 237.7985 0006415 195.0046 277.5664 14.39833120633495
SL-16 R/B               
1 23705U 95058B   26167.84985140  .00000288  00000+0  17133-3 0  9990
2 23705  71.0220 332.0666 0013754 320.9664  39.0466 14.15508308581880
SL-16 R/B               
1 24298U 96051B   26167.74808148  .00000106  00000+0  84208-4 0  9990
2 24298  70.7640 325.5779 0015434 337.5418  22.5024 14.12445706535638
ORBVIEW 2 (SEASTAR)     
1 24883U 97037A   26167.74117789  .00000155  00000+0  70005-4 0  9993
2 24883  98.8686 334.7478 0003178 117.0163 243.1346 14.35553052522685
SL-16 R/B               
1 25400U 98043G   26167.87179039  .00000034  00000+0  33164-4 0  9998
2 25400  98.8363 122.0282 0010944  87.1494 273.0938 14.26068563453126
SL-16 R/B               
1 25407U 98045B   26167.74147661 -.00000248  00000+0 -10095-3 0  9995
2 25407  71.0118 333.2672 0009410 242.1722 117.8448 14.16203322441127
ISS (ZARYA)             
1 25544U 98067A   26167.86697329  .00007968  00000+0  15124-3 0  9997
2 25544  51.6339 301.6783 0004749 194.3570 165.7284 15.49265361571705
CZ-4B R/B               
1 25732U 99025C   26167.87802389  .00000038  00000+0  39092-4 0  9998
2 25732  98.6484 209.7243 0038076  60.5421 113.5857 14.18283455402220
OKEAN-O                 
1 25860U 99039A   26167.73926170  .00000494  00000+0  71435-4 0  9998
2 25860  97.9317 226.5423 0001627  72.3818 287.7572 14.80466787449048
SL-16 R/B               
1 25861U 99039B   26167.69392828  .00000387  00000+0  55766-4 0  9991
2 25861  97.9838 226.5583 0013512 298.6652  61.3202 14.81844706451523
DELTA 2 R/B             
1 25876U 99041E   26167.53840640  .00000514  00000+0  12069-3 0  9993
2 25876  51.7657 266.3886 0500851 280.0985  74.3822 14.12015127376995
HELIOS 1B               
1 25977U 99064A   26167.70791909  .00001128  00000+0  12930-3 0  9991
2 25977  98.1615  72.8338 0002490  92.0013 268.1487 14.88005499699988
TERRA                   
1 25994U 99068A   26167.89082471  .00000327  00000+0  75513-4 0  9998
2 25994  97.9457 217.4488 0001555 190.4186 284.6770 14.61102929409564
SL-16 R/B               
1 26070U 00006B   26167.64128690 -.00000070  00000+0 -11146-4 0  9994
2 26070  71.0021 249.7729 0015506  23.7948 336.3889 14.15834046362566
TITAN 4B R/B            
1 26474U 00047B   26167.79534337  .00002543  00000+0  15997-3 0  9994
2 26474  67.9881 121.6760 0045733 287.5284  72.0871 15.10195775407877
ENVISAT                 
1 27386U 02009A   26167.76296080  .00000059  00000+0  32868-4 0  9991
2 27386  98.3834 119.0908 0001346  88.8494 334.9526 14.39064682273429
IDEFIX & ARIANE 42P R/B 
1 27422U 02021B   26167.84990111  .00000165  00000+0  79281-4 0  9999
2 27422  98.5943 105.3367 0010585 255.0333 104.9678 14.31081947258202
AQUA                    
1 27424U 02022A   26167.85374244  .00000620  00000+0  13312-3 0  9994
2 27424  98.4277 137.1299 0001116  53.2308  33.5679 14.62157697283228
CZ-4B R/B               
1 27432U 02024C   26167.75493975  .00000034  00000+0  40114-4 0  9997
2 27432  98.8700 220.5780 0051187 101.4413   9.2251 14.14564389243241
MIDORI II (ADEOS-II)    
1 27597U 02056A   26167.85805889  .00000198  00000+0  95728-4 0  9998
2 27597  98.7878 127.1150 0002206  77.4422 282.7006 14.29349440224465
H-2A R/B                
1 27601U 02056E   26167.87097666  .00000145  00000+0  65672-4 0  9999
2 27601  98.3312 124.5569 0069172 225.5247 189.0108 14.33821908228321
CZ-4B R/B               
1 28059U 03049C   26167.74988926  .00000217  00000+0  61468-4 0  9993
2 28059  98.6896 166.5790 0046974 289.9597  69.6543 14.55099846201002
CZ-2C R/B               
1 28222U 04012C   26167.77990519  .00088112  00000+0  49561-3 0  9999
2 28222  97.7078 243.3955 0009372 285.2817  74.7413 15.78917579219839
SL-16 R/B               
1 28353U 04021B   26167.87843558 -.00000252  00000+0 -10609-3 0  9997
2 28353  71.0008  24.3372 0007283 255.2385 104.7930 14.14608456136867
CZ-4B R/B               
1 28415U 04035C   26167.80573978  .00006185  00000+0  20875-3 0  9995
2 28415  97.3360 200.8835 0029927 339.3686  20.6345 15.30622063195062
CZ-2C R/B               
1 28480U 04046B   26167.70068963  .00000057  00000+0  36638-4 0  9998
2 28480  98.1945  76.5119 0138466 221.7182 137.3376 14.27026391122628
ARIANE 5 R/B            
1 28499U 04049H   26167.72608440  .00000526  00000+0  64266-4 0  9992
2 28499  98.2720 339.9610 0084534  30.9106 329.7045 14.85448490160493
